<?xml version="1.0" encoding="UTF-8"?><kml xmlns="http://earth.google.com/kml/2.1"><Folder><Placemark><name>18 5G 1-0-18</name><ExtendedData><Data name="CGI"><value>3150100000100018</value></Data><Data name="CELLNAME"><value></value></Data><Data name="CELLID"><value>18</value></Data><Data name="RNC"><value>0</value></Data><Data name="TAC"><value>1</value></Data><Data name="TECHNOLOGY"><value>5G SA</value></Data><Data name="MODE"><value>5G</value></Data><Data name="ARFCN"><value>644640</value></Data><Data name="BAND"><value></value></Data><Data name="BANDWIDTH"><value></value></Data><Data name="CA"><value>false</value></Data><Data name="NR state"><value></value></Data><Data name="RSRP"><value>-105 dBm</value></Data><Data name="RSRQ"><value>-11</value></Data><Data name="LAYER"><value>1</value></Data><Data name="PC"><value>2</value></Data><Data name="DL_BITRATE"><value> kbps</value></Data><Data name="UL_BITRATE"><value> kbps</value></Data><Data name="IP"><value></value></Data><Data name="PHONE STATE"><value>I</value></Data><Data name="IMEI"><value></value></Data><Data name="SPEED"><value>17 km/h</value></Data><Data name="HEIGHT"><value>-2m</value></Data><Data name="ALTITUDE"><value>-2m</value></Data><Data name="LOCATION"><value>G</value></Data><Data name="ACCURACY"><value>4m</value></Data><Data name="DISTANCE"><value>-1m</value></Data><Data name="SITE BEARING"><value>1000deg</value></Data><Data name="ANTENNA BEARING"><value>1000deg</value></Data><Data name="CELLHEX"><value>12</value></Data><Data name="NODEHEX"><value>0</value></Data><Data name="LACHEX"><value>1</value></Data><Data name="RAWCELLID"><value>18</value></Data><Data name="TIME"><value>2026.08.19_12.13.43</value></Data></ExtendedData><Style><LabelStyle><scale>0.0</scale> </LabelStyle><IconStyle><color>FF9F6916</color><scale>1.0</scale><Icon><href>http://maps.google.com/mapfiles/kml/shapes/shaded_dot.png</href></Icon></IconStyle></Style><Point><coordinates>-75.75554581,39.66434088,0</coordinates></Point></Placemark><Placemark><name>18 5G 1-0-18</name><ExtendedData><Data name="CGI"><value>3150100000100018</value></Data><Data name="CELLNAME"><value></value></Data><Data name="CELLID"><value>18</value></Data><Data name="RNC"><value>0</value></Data><Data name="TAC"><value>1</value></Data><Data name="TECHNOLOGY"><value>5G SA</value></Data><Data name="MODE"><value>5G</value></Data><Data name="ARFCN"><value>644640</value></Data><Data name="BAND"><value></value></Data><Data name="BANDWIDTH"><value></value></Data><Data name="CA"><value>false</value></Data><Data name="NR state"><value></value></Data><Data name="RSRP"><value>-105 dBm</value></Data><Data name="RSRQ"><value>-11</value></Data><Data name="LAYER"><value>1</value></Data><Data name="PC"><value>2</value></Data><Data name="DL_BITRATE"><value> kbps</value></Data><Data name="UL_BITRATE"><value> kbps</value></Data><Data name="IP"><value></value></Data><Data name="PHONE STATE"><value>I</value></Data><Data name="IMEI"><value></value></Data><Data name="SPEED"><value>17 km/h</value></Data><Data name="HEIGHT"><value>-2m</value></Data><Data name="ALTITUDE"><value>-2m</value></Data><Data name="LOCATION"><value>G</value></Data><Data name="ACCURACY"><value>4m</value></Data><Data name="DISTANCE"><value>-1m</value></Data><Data name="SITE BEARING"><value>1000deg</value></Data><Data name="ANTENNA BEARING"><value>1000deg</value></Data><Data name="CELLHEX"><value>12</value></Data><Data name="NODEHEX"><value>0</value></Data><Data name="LACHEX"><value>1</value></Data><Data name="RAWCELLID"><value>18</value></Data><Data name="TIME"><value>2026.08.19_12.13.44</value></Data><Data name="NEI1"><value></value></Data><Data name="NEI2"><value></value></Data><Data name="NEI3"><value></value></Data><Data name="NEI4"><value></value></Data><Data name="NEI5"><value></value></Data><Data name="NEI6"><value></value></Data></ExtendedData><Style><LabelStyle><scale>0.0</scale> </LabelStyle><IconStyle><color>FF9F6916</color><scale>1.0</scale><Icon><href>http://maps.google.com/mapfiles/kml/shapes/shaded_dot.png</href></Icon></IconStyle></Style><Point><coordinates>-75.75554581,39.66434088,0</coordinates></Point></Placemark><Placemark><name>18 5G 1-0-18</name><ExtendedData><Data name="CGI"><value>3150100000100018</value></Data><Data name="CELLNAME"><value></value></Data><Data name="CELLID"><value>18</value></Data><Data name="RNC"><value>0</value></Data><Data name="TAC"><value>1</value></Data><Data name="TECHNOLOGY"><value>5G SA</value></Data><Data name="MODE"><value>5G</value></Data><Data name="ARFCN"><value>644640</value></Data><Data name="BAND"><value></value></Data><Data name="BANDWIDTH"><value></value></Data><Data name="CA"><value>false</value></Data><Data name="NR state"><value></value></Data><Data name="RSRP"><value>-105 dBm</value></Data><Data name="RSRQ"><value>-11</value></Data><Data name="LAYER"><value>1</value></Data><Data name="PC"><value>2</value></Data><Data name="DL_BITRATE"><value> kbps</value></Data><Data name="UL_BITRATE"><value> kbps</value></Data><Data name="IP"><value></value></Data><Data name="PHONE STATE"><value>I</value></Data><Data name="IMEI"><value></value></Data><Data name="SPEED"><value>18 km/h</value></Data><Data name="HEIGHT"><value>-2m</value></Data><Data name="ALTITUDE"><value>-2m</value></Data><Data name="LOCATION"><value>G</value></Data><Data name="ACCURACY"><value>3m</value></Data><Data name="DISTANCE"><value>-1m</value></Data><Data name="SITE BEARING"><value>1000deg</value></Data><Data name="ANTENNA BEARING"><value>1000deg</value></Data><Data name="CELLHEX"><value>12</value></Data><Data name="NODEHEX"><value>0</value></Data><Data name="LACHEX"><value>1</value></Data><Data name="RAWCELLID"><value>18</value></Data><Data name="TIME"><value>2026.08.19_12.13.44</value></Data><Data name="NEI1"><value></value></Data><Data name="NEI2"><value></value></Data><Data name="NEI3"><value></value></Data><Data name="NEI4"><value></value></Data><Data name="NEI5"><value></value></Data><Data name="NEI6"><value></value></Data></ExtendedData><Style><LabelStyle><scale>0.0</scale> </LabelStyle><IconStyle><color>FF9F6916</color><scale>1.0</scale><Icon><href>http://maps.google.com/mapfiles/kml/shapes/shaded_dot.png</href></Icon></IconStyle></Style><Point><coordinates>-75.75553867,39.66438728,0</coordinates></Point></Placemark><Placemark><name>18 5G 1-0-18</name><ExtendedData><Data name="CGI"><value>3150100000100018</value></Data><Data name="CELLNAME"><value></value></Data><Data name="CELLID"><value>18</value></Data><Data name="RNC"><value>0</value></Data><Data name="TAC"><value>1</value></Data><Data name="TECHNOLOGY"><value>5G SA</value></Data><Data name="MODE"><value>5G</value></Data><Data name="ARFCN"><value>644640</value></Data><Data name="BAND"><value></value></Data><Data name="BANDWIDTH"><value></value></Data><Data name="CA"><value>false</value></Data><Data name="NR state"><value></value></Data><Data name="RSRP"><value>-105 dBm</value></Data><Data name="RSRQ"><value>-11</value></Data><Data name="LAYER"><value>1</value></Data><Data name="PC"><value>2</value></Data><Data name="DL_BITRATE"><value> kbps</value></Data><Data name="UL_BITRATE"><value> kbps</value></Data><Data name="IP"><value></value></Data><Data name="PHONE STATE"><value>I</value></Data><Data name="IMEI"><value></value></Data><Data name="SPEED"><value>18 km/h</value></Data><Data name="HEIGHT"><value>-2m</value></Data><Data name="ALTITUDE"><value>-2m</value></Data><Data name="LOCATION"><value>G</value></Data><Data name="ACCURACY"><value>3m</value></Data><Data name="DISTANCE"><value>-1m</value></Data><Data name="SITE BEARING"><value>1000deg</value></Data><Data name="ANTENNA BEARING"><value>1000deg</value></Data><Data name="CELLHEX"><value>12</value></Data><Data name="NODEHEX"><value>0</value></Data><Data name="LACHEX"><value>1</value></Data><Data name="RAWCELLID"><value>18</value></Data><Data name="TIME"><value>2026.08.19_12.13.45</value></Data><Data name="NEI1"><value></value></Data><Data name="NEI2"><value></value></Data><Data name="NEI3"><value></value></Data><Data name="NEI4"><value></value></Data><Data name="NEI5"><value></value></Data><Data name="NEI6"><value></value></Data></ExtendedData><Style><LabelStyle><scale>0.0</scale> </LabelStyle><IconStyle><color>FF9F6916</color><scale>1.0</scale><Icon><href>http://maps.google.com/mapfiles/kml/shapes/shaded_dot.png</href></Icon></IconStyle></Style><Point><coordinates>-75.75553867,39.66438728,0</coordinates></Point></Placemark><Placemark><name>18 5G 1-0-18</name><ExtendedData><Data name="CGI"><value>3150100000100018</value></Data><Data name="CELLNAME"><value></value></Data><Data name="CELLID"><value>18</value></Data><Data name="RNC"><value>0</value></Data><Data name="TAC"><value>1</value></Data><Data name="TECHNOLOGY"><value>5G SA</value></Data><Data name="MODE"><value>5G</value></Data><Data name="ARFCN"><value>644640</value></Data><Data name="BAND"><value></value></Data><Data name="BANDWIDTH"><value></value></Data><Data name="CA"><value>false</value></Data><Data name="NR state"><value></value></Data><Data name="RSRP"><value>-105 dBm</value></Data><Data name="RSRQ"><value>-11</value></Data><Data name="LAYER"><value>1</value></Data><Data name="PC"><value>2</value></Data><Data name="DL_BITRATE"><value> kbps</value></Data><Data name="UL_BITRATE"><value> kbps</value></Data><Data name="IP"><value></value></Data><Data name="PHONE STATE"><value>I</value></Data><Data name="IMEI"><value></value></Data><Data name="SPEED"><value>18 km/h</value></Data><Data name="HEIGHT"><value>-3m</value></Data><Data name="ALTITUDE"><value>-3m</value></Data><Data name="LOCATION"><value>G</value></Data><Data name="ACCURACY"><value>3m</value></Data><Data name="DISTANCE"><value>-1m</value></Data><Data name="SITE BEARING"><value>1000deg</value></Data><Data name="ANTENNA BEARING"><value>1000deg</value></Data><Data name="CELLHEX"><value>12</value></Data><Data name="NODEHEX"><value>0</value></Data><Data name="LACHEX"><value>1</value></Data><Data name="RAWCELLID"><value>18</value></Data><Data name="TIME"><value>2026.08.19_12.13.45</value></Data><Data name="NEI1"><value></value></Data><Data name="NEI2"><value></value></Data><Data name="NEI3"><value></value></Data><Data name="NEI4"><value></value></Data><Data name="NEI5"><value></value></Data><Data name="NEI6"><value></value></Data></ExtendedData><Style><LabelStyle><scale>0.0</scale> </LabelStyle><IconStyle><color>FF9F6916</color><scale>1.0</scale><Icon><href>http://maps.google.com/mapfiles/kml/shapes/shaded_dot.png</href></Icon></IconStyle></Style><Point><coordinates>-75.75553974,39.66443699,0</coordinates></Point></Placemark><Placemark><name>18 5G 1-0-18</name><ExtendedData><Data name="CGI"><value>3150100000100018</value></Data><Data name="CELLNAME"><value></value></Data><Data name="CELLID"><value>18</value></Data><Data name="RNC"><value>0</value></Data><Data name="TAC"><value>1</value></Data><Data name="TECHNOLOGY"><value>5G SA</value></Data><Data name="MODE"><value>5G</value></Data><Data name="ARFCN"><value>644640</value></Data><Data name="BAND"><value></value></Data><Data name="BANDWIDTH"><value></value></Data><Data name="CA"><value>false</value></Data><Data name="NR state"><value></value></Data><Data name="RSRP"><value>-105 dBm</value></Data><Data name="RSRQ"><value>-11</value></Data><Data name="LAYER"><value>1</value></Data><Data name="PC"><value>2</value></Data><Data name="DL_BITRATE"><value> kbps</value></Data><Data name="UL_BITRATE"><value> kbps</value></Data><Data name="IP"><value></value></Data><Data name="PHONE STATE"><value>I</value></Data><Data name="IMEI"><value></value></Data><Data name="SPEED"><value>18 km/h</value></Data><Data name="HEIGHT"><value>-3m</value></Data><Data name="ALTITUDE"><value>-3m</value></Data><Data name="LOCATION"><value>G</value></Data><Data name="ACCURACY"><value>3m</value></Data><Data name="DISTANCE"><value>-1m</value></Data><Data name="SITE BEARING"><value>1000deg</value></Data><Data name="ANTENNA BEARING"><value>1000deg</value></Data><Data name="CELLHEX"><value>12</value></Data><Data name="NODEHEX"><value>0</value></Data><Data name="LACHEX"><value>1</value></Data><Data name="RAWCELLID"><value>18</value></Data><Data name="TIME"><value>2026.08.19_12.13.46</value></Data><Data name="NEI1"><value></value></Data><Data name="NEI2"><value></value></Data><Data name="NEI3"><value></value></Data><Data name="NEI4"><value></value></Data><Data name="NEI5"><value></value></Data><Data name="NEI6"><value></value></Data></ExtendedData><Style><LabelStyle><scale>0.0</scale> </LabelStyle><IconStyle><color>FF9F6916</color><scale>1.0</scale><Icon><href>http://maps.google.com/mapfiles/kml/shapes/shaded_dot.png</href></Icon></IconStyle></Style><Point><coordinates>-75.75553974,39.66443699,0</coordinates></Point></Placemark><Placemark><name>18 5G 1-0-18</name><ExtendedData><Data name="CGI"><value>3150100000100018</value></Data><Data name="CELLNAME"><value></value></Data><Data name="CELLID"><value>18</value></Data><Data name="RNC"><value>0</value></Data><Data name="TAC"><value>1</value></Data><Data name="TECHNOLOGY"><value>5G SA</value></Data><Data name="MODE"><value>5G</value></Data><Data name="ARFCN"><value>644640</value></Data><Data name="BAND"><value></value></Data><Data name="BANDWIDTH"><value></value></Data><Data name="CA"><value>false</value></Data><Data name="NR state"><value></value></Data><Data name="RSRP"><value>-105 dBm</value></Data><Data name="RSRQ"><value>-11</value></Data><Data name="LAYER"><value>1</value></Data><Data name="PC"><value>2</value></Data><Data name="DL_BITRATE"><value> kbps</value></Data><Data name="UL_BITRATE"><value> kbps</value></Data><Data name="IP"><value></value></Data><Data name="PHONE STATE"><value>I</value></Data><Data name="IMEI"><value></value></Data><Data name="SPEED"><value>20 km/h</value></Data><Data name="HEIGHT"><value>-3m</value></Data><Data name="ALTITUDE"><value>-3m</value></Data><Data name="LOCATION"><value>G</value></Data><Data name="ACCURACY"><value>3m</value></Data><Data name="DISTANCE"><value>-1m</value></Data><Data name="SITE BEARING"><value>1000deg</value></Data><Data name="ANTENNA BEARING"><value>1000deg</value></Data><Data name="CELLHEX"><value>12</value></Data><Data name="NODEHEX"><value>0</value></Data><Data name="LACHEX"><value>1</value></Data><Data name="RAWCELLID"><value>18</value></Data><Data name="TIME"><value>2026.08.19_12.13.46</value></Data><Data name="NEI1"><value></value></Data><Data name="NEI2"><value></value></Data><Data name="NEI3"><value></value></Data><Data name="NEI4"><value></value></Data><Data name="NEI5"><value></value></Data><Data name="NEI6"><value></value></Data></ExtendedData><Style><LabelStyle><scale>0.0</scale> </LabelStyle><IconStyle><color>FF9F6916</color><scale>1.0</scale><Icon><href>http://maps.google.com/mapfiles/kml/shapes/shaded_dot.png</href></Icon></IconStyle></Style><Point><coordinates>-75.75554427,39.66449172,0</coordinates></Point></Placemark></Folder></kml>