<?xml version="1.0" encoding="UTF-8"?><kml xmlns="http://earth.google.com/kml/2.1"><Folder><Placemark><name>CELL_RESELECTION_5G5G</name><ExtendedData><Data name="DETAILS"><value>315-010-1-0-17-637248-1:315-010-1-0-18-644640-2</value></Data><Data name="CGI"><value>3150100000100017</value></Data><Data name="CELLNAME"><value></value></Data><Data name="CELLID"><value>17</value></Data><Data name="RNC"><value>0</value></Data><Data name="TAC"><value>1</value></Data><Data name="TECHNOLOGY"><value>5G SA</value></Data><Data name="MODE"><value>5G</value></Data><Data name="RSRP"><value>-116 dBm</value></Data><Data name="RSRQ"><value>-16</value></Data><Data name="LAYER"><value>1</value></Data><Data name="PC"><value>1</value></Data><Data name="DL_BITRATE"><value>0 kbps</value></Data><Data name="UL_BITRATE"><value>0 kbps</value></Data><Data name="PHONE STATE"><value>I</value></Data><Data name="SPEED"><value>17 km/h</value></Data><Data name="HEIGHT"><value>-4m</value></Data><Data name="ACCURACY"><value>3m</value></Data><Data name="TIME"><value>2026.08.19_12.09.36</value></Data><Data name="NEI1"><value></value></Data><Data name="NEI2"><value></value></Data><Data name="NEI3"><value></value></Data><Data name="NEI4"><value></value></Data><Data name="NEI5"><value></value></Data><Data name="NEI6"><value></value></Data><Data name="INFO"><value>CELL_RESELECTION_5G5G</value></Data></ExtendedData><Style><LabelStyle><scale>0.0</scale> </LabelStyle><IconStyle><color>FF00FF00</color><scale>1.0</scale><Icon><href>http://maps.google.com/mapfiles/kml/shapes/arrow-reverse.png</href></Icon></IconStyle></Style><Point><coordinates>-75.75781413,39.66288668,0</coordinates></Point></Placemark><Placemark><name>CELL_RESELECTION_5G5G</name><ExtendedData><Data name="DETAILS"><value>315-010-1-0-18-644640-2:315-010-1-0-17-637248-1</value></Data><Data name="CGI"><value>3150100000100018</value></Data><Data name="CELLNAME"><value></value></Data><Data name="CELLID"><value>18</value></Data><Data name="RNC"><value>0</value></Data><Data name="TAC"><value>1</value></Data><Data name="TECHNOLOGY"><value>5G SA</value></Data><Data name="MODE"><value>5G</value></Data><Data name="RSRP"><value>-108 dBm</value></Data><Data name="RSRQ"><value>-11</value></Data><Data name="LAYER"><value>1</value></Data><Data name="PC"><value>2</value></Data><Data name="DL_BITRATE"><value>0 kbps</value></Data><Data name="UL_BITRATE"><value>0 kbps</value></Data><Data name="PHONE STATE"><value>I</value></Data><Data name="SPEED"><value>0 km/h</value></Data><Data name="HEIGHT"><value>-2m</value></Data><Data name="ACCURACY"><value>3m</value></Data><Data name="TIME"><value>2026.08.19_12.13.20</value></Data><Data name="NEI1"><value></value></Data><Data name="NEI2"><value></value></Data><Data name="NEI3"><value></value></Data><Data name="NEI4"><value></value></Data><Data name="NEI5"><value></value></Data><Data name="NEI6"><value></value></Data><Data name="INFO"><value>CELL_RESELECTION_5G5G</value></Data></ExtendedData><Style><LabelStyle><scale>0.0</scale> </LabelStyle><IconStyle><color>FF00FF00</color><scale>1.0</scale><Icon><href>http://maps.google.com/mapfiles/kml/shapes/arrow-reverse.png</href></Icon></IconStyle></Style><Point><coordinates>-75.75563859,39.66401661,0</coordinates></Point></Placemark></Folder></kml>